{
  "type": "FeatureCollection",
  "features": [
    {
      "type": "Feature",
      "properties": {
        "norad_id": 66575,
        "name": "STARLINK-35810",
        "group": "last-30-days",
        "lat": -10.859983633558368,
        "lon": -1.2925888950499862,
        "alt_km": 362.7879223062391,
        "timestamp": "2025-12-04T23:34:04.491626+00:00",
        "meta_object_name": "STARLINK-35810",
        "meta_object_id": "2025-268U",
        "meta_epoch": "2025-12-04T18:00:02.000160",
        "meta_mean_motion": 15.69898831,
        "meta_eccentricity": 0.0001636,
        "meta_inclination": 42.9987,
        "meta_ra_of_asc_node": 168.2219,
        "meta_arg_of_pericenter": 265.6192,
        "meta_mean_anomaly": 58.1486,
        "meta_ephemeris_type": 0,
        "meta_classification_type": "U",
        "meta_norad_cat_id": 66575,
        "meta_element_set_no": 999,
        "meta_rev_at_epoch": 338,
        "meta_bstar": -0.017707,
        "meta_mean_motion_dot": -0.01934366,
        "meta_mean_motion_ddot": 0,
        "tle_line1": "1 66575U 25268U   25338.75002315 -.01934366  00000+0 -17707-1 0  9992",
        "tle_line2": "2 66575  42.9987 168.2219 0001636 265.6192  58.1486 15.69898831  3380"
      },
      "geometry": {
        "type": "Point",
        "coordinates": [
          -1.2925888950499862,
          -10.859983633558368
        ]
      }
    },
    {
      "type": "Feature",
      "properties": {
        "norad_id": 66576,
        "name": "STARLINK-35814",
        "group": "last-30-days",
        "lat": -12.136240232847124,
        "lon": 0.16433322008738166,
        "alt_km": 362.95351589095935,
        "timestamp": "2025-12-04T23:34:04.491636+00:00",
        "meta_object_name": "STARLINK-35814",
        "meta_object_id": "2025-268V",
        "meta_epoch": "2025-12-04T18:00:02.000160",
        "meta_mean_motion": 15.69903635,
        "meta_eccentricity": 0.0001544,
        "meta_inclination": 42.9987,
        "meta_ra_of_asc_node": 168.2171,
        "meta_arg_of_pericenter": 267.9929,
        "meta_mean_anomaly": 57.6908,
        "meta_ephemeris_type": 0,
        "meta_classification_type": "U",
        "meta_norad_cat_id": 66576,
        "meta_element_set_no": 999,
        "meta_rev_at_epoch": 338,
        "meta_bstar": -0.017779,
        "meta_mean_motion_dot": -0.01941627,
        "meta_mean_motion_ddot": 0,
        "tle_line1": "1 66576U 25268V   25338.75002315 -.01941627  00000+0 -17779-1 0  9990",
        "tle_line2": "2 66576  42.9987 168.2171 0001544 267.9929  57.6908 15.69903635  3381"
      },
      "geometry": {
        "type": "Point",
        "coordinates": [
          0.16433322008738166,
          -12.136240232847124
        ]
      }
    },
    {
      "type": "Feature",
      "properties": {
        "norad_id": 66577,
        "name": "STARLINK-35815",
        "group": "last-30-days",
        "lat": -13.403313998490376,
        "lon": 1.6335948263878803,
        "alt_km": 363.0606828307009,
        "timestamp": "2025-12-04T23:34:04.491650+00:00",
        "meta_object_name": "STARLINK-35815",
        "meta_object_id": "2025-268W",
        "meta_epoch": "2025-12-04T18:00:02.000160",
        "meta_mean_motion": 15.6990267,
        "meta_eccentricity": 0.000156,
        "meta_inclination": 42.9989,
        "meta_ra_of_asc_node": 168.2124,
        "meta_arg_of_pericenter": 268.7347,
        "meta_mean_anomaly": 58.8667,
        "meta_ephemeris_type": 0,
        "meta_classification_type": "U",
        "meta_norad_cat_id": 66577,
        "meta_element_set_no": 999,
        "meta_rev_at_epoch": 338,
        "meta_bstar": -0.017774,
        "meta_mean_motion_dot": -0.01941083,
        "meta_mean_motion_ddot": 0,
        "tle_line1": "1 66577U 25268W   25338.75002315 -.01941083  00000+0 -17774-1 0  9992",
        "tle_line2": "2 66577  42.9989 168.2124 0001560 268.7347  58.8667 15.69902670  3386"
      },
      "geometry": {
        "type": "Point",
        "coordinates": [
          1.6335948263878803,
          -13.403313998490376
        ]
      }
    },
    {
      "type": "Feature",
      "properties": {
        "norad_id": 66578,
        "name": "STARLINK-35743",
        "group": "last-30-days",
        "lat": -14.664848634010117,
        "lon": 3.122005824567147,
        "alt_km": 363.1434289155595,
        "timestamp": "2025-12-04T23:34:04.491660+00:00",
        "meta_object_name": "STARLINK-35743",
        "meta_object_id": "2025-268X",
        "meta_epoch": "2025-12-04T18:00:02.000160",
        "meta_mean_motion": 15.69879859,
        "meta_eccentricity": 0.0001544,
        "meta_inclination": 42.9988,
        "meta_ra_of_asc_node": 168.2074,
        "meta_arg_of_pericenter": 266.9203,
        "meta_mean_anomaly": 62.6157,
        "meta_ephemeris_type": 0,
        "meta_classification_type": "U",
        "meta_norad_cat_id": 66578,
        "meta_element_set_no": 999,
        "meta_rev_at_epoch": 338,
        "meta_bstar": -0.017543,
        "meta_mean_motion_dot": -0.01917127,
        "meta_mean_motion_ddot": 0,
        "tle_line1": "1 66578U 25268X   25338.75002315 -.01917127  00000+0 -17543-1 0  9999",
        "tle_line2": "2 66578  42.9988 168.2074 0001544 266.9203  62.6157 15.69879859  3382"
      },
      "geometry": {
        "type": "Point",
        "coordinates": [
          3.122005824567147,
          -14.664848634010117
        ]
      }
    },
    {
      "type": "Feature",
      "properties": {
        "norad_id": 66579,
        "name": "STARLINK-35868",
        "group": "last-30-days",
        "lat": -15.908422522624855,
        "lon": 4.617604000263086,
        "alt_km": 363.1602988431405,
        "timestamp": "2025-12-04T23:34:04.491671+00:00",
        "meta_object_name": "STARLINK-35868",
        "meta_object_id": "2025-268Y",
        "meta_epoch": "2025-12-04T18:00:02.000160",
        "meta_mean_motion": 15.69902067,
        "meta_eccentricity": 0.0001731,
        "meta_inclination": 42.9988,
        "meta_ra_of_asc_node": 168.2026,
        "meta_arg_of_pericenter": 267.5787,
        "meta_mean_anomaly": 63.8548,
        "meta_ephemeris_type": 0,
        "meta_classification_type": "U",
        "meta_norad_cat_id": 66579,
        "meta_element_set_no": 999,
        "meta_rev_at_epoch": 338,
        "meta_bstar": -0.017747,
        "meta_mean_motion_dot": -0.01938598,
        "meta_mean_motion_ddot": 0,
        "tle_line1": "1 66579U 25268Y   25338.75002315 -.01938598  00000+0 -17747-1 0  9991",
        "tle_line2": "2 66579  42.9988 168.2026 0001731 267.5787  63.8548 15.69902067  3387"
      },
      "geometry": {
        "type": "Point",
        "coordinates": [
          4.617604000263086,
          -15.908422522624855
        ]
      }
    },
    {
      "type": "Feature",
      "properties": {
        "norad_id": 66580,
        "name": "STARLINK-35872",
        "group": "last-30-days",
        "lat": -17.147917306489695,
        "lon": 6.140213642622461,
        "alt_km": 363.299011806178,
        "timestamp": "2025-12-04T23:34:04.491681+00:00",
        "meta_object_name": "STARLINK-35872",
        "meta_object_id": "2025-268Z",
        "meta_epoch": "2025-12-04T18:00:02.000160",
        "meta_mean_motion": 15.69904317,
        "meta_eccentricity": 0.0001651,
        "meta_inclination": 42.9988,
        "meta_ra_of_asc_node": 168.1982,
        "meta_arg_of_pericenter": 269.3017,
        "meta_mean_anomaly": 64.0493,
        "meta_ephemeris_type": 0,
        "meta_classification_type": "U",
        "meta_norad_cat_id": 66580,
        "meta_element_set_no": 999,
        "meta_rev_at_epoch": 338,
        "meta_bstar": -0.01779,
        "meta_mean_motion_dot": -0.01942788,
        "meta_mean_motion_ddot": 0,
        "tle_line1": "1 66580U 25268Z   25338.75002315 -.01942788  00000+0 -17790-1 0  9997",
        "tle_line2": "2 66580  42.9988 168.1982 0001651 269.3017  64.0493 15.69904317  3388"
      },
      "geometry": {
        "type": "Point",
        "coordinates": [
          6.140213642622461,
          -17.147917306489695
        ]
      }
    },
    {
      "type": "Feature",
      "properties": {
        "norad_id": 66581,
        "name": "STARLINK-35744",
        "group": "last-30-days",
        "lat": -18.374050034999563,
        "lon": 7.679833365952232,
        "alt_km": 363.345994296521,
        "timestamp": "2025-12-04T23:34:04.491691+00:00",
        "meta_object_name": "STARLINK-35744",
        "meta_object_id": "2025-268AA",
        "meta_epoch": "2025-12-04T18:00:02.000160",
        "meta_mean_motion": 15.6990048,
        "meta_eccentricity": 0.000171,
        "meta_inclination": 42.9988,
        "meta_ra_of_asc_node": 168.1926,
        "meta_arg_of_pericenter": 268.7196,
        "meta_mean_anomaly": 66.5502,
        "meta_ephemeris_type": 0,
        "meta_classification_type": "U",
        "meta_norad_cat_id": 66581,
        "meta_element_set_no": 999,
        "meta_rev_at_epoch": 333,
        "meta_bstar": -0.017741,
        "meta_mean_motion_dot": -0.01937827,
        "meta_mean_motion_ddot": 0,
        "tle_line1": "1 66581U 25268AA  25338.75002315 -.01937827  00000+0 -17741-1 0  9992",
        "tle_line2": "2 66581  42.9988 168.1926 0001710 268.7196  66.5502 15.69900480  3334"
      },
      "geometry": {
        "type": "Point",
        "coordinates": [
          7.679833365952232,
          -18.374050034999563
        ]
      }
    }
  ]
}